NORAD_CAT_ID,OBJECT_NAME,OBJECT_TYPE,EPOCH,MEAN_MOTION,ECCENTRICITY,INCLINATION,RA_OF_ASC_NODE,ARG_OF_PERICENTER,MEAN_ANOMALY,BSTAR,MEAN_MOTION_DOT,MEAN_MOTION_DDOT,TLE_LINE0,TLE_LINE1,TLE_LINE2,SEMIMAJOR_AXIS,PERIOD,APOGEE,PERIGEE,DECAYED
49147.0,STARLINK-3071,PAYLOAD,2022-04-25 22:00:00,15.34496114,0.0003424,69.9997,219.8604,277.8408,160.9838,-0.02324,-0.00719254,0.0,0 STARLINK-3071,1 49147U 21082T   22115.91667824 -.00719254  00000-0 -23240-1 0  9994,2 49147  69.9997 219.8604 0003424 277.8408 160.9838 15.34496114  3685,6840.555,93.842,464.762,460.077,0.0
49147.0,STARLINK-3071,PAYLOAD,2022-04-26 06:00:00,15.33984703,0.0003469,70.0001,218.9738,284.7898,194.5769,-0.023594,-0.00718485,0.0,0 STARLINK-3071,1 49147U 21082T   22116.25001157 -.00718485  00000-0 -23594-1 0  9990,2 49147  70.0001 218.9738 0003469 284.7898 194.5769 15.33984703 36396,6842.075,93.873,466.31300000000016,461.566,0.0
49147.0,STARLINK-3071,PAYLOAD,2022-04-26 14:00:01,15.33472783,0.0003539,70.0,218.0879,290.4240000000001,228.9365,-0.023946,-0.00717542,0.0,0 STARLINK-3071,1 49147U 21082T   22116.58335648 -.00717542  00000-0 -23946-1 0  9995,2 49147  70.0000 218.0879 0003539 290.4240 228.9365 15.33472783  3663,6843.598000000001,93.905,467.884,463.041,0.0
49147.0,STARLINK-3071,PAYLOAD,2022-04-26 22:00:00,15.32904866,0.0003422,69.9999,217.201,285.3715,273.2706,-0.021525,-0.00639091,0.0,0 STARLINK-3071,1 49147U 21082T   22116.91667824 -.00639091  00000-0 -21525-1 0  9999,2 49147  69.9999 217.2010 0003422 285.3715 273.2706 15.32904866  3636,6845.288000000001,93.939,469.495,464.81,0.0
49147.0,STARLINK-3071,PAYLOAD,2022-04-27 06:00:00,15.324523,0.0003313,70.0,216.318,282.7918,314.5241,-0.024782,-0.00718888,0.0,0 STARLINK-3071,1 49147U 21082T   22117.25001157 -.00718888  00000-0 -24782-1 0  9998,2 49147  70.0000 216.3180 0003313 282.7918 314.5241 15.32452300 36556,6846.635,93.967,470.769,466.232,0.0
49147.0,STARLINK-3071,PAYLOAD,2022-04-27 14:00:01,15.31939171,0.000348,70.0001,215.4341,288.6652,346.8065,-0.025075,-0.00716013,0.0,0 STARLINK-3071,1 49147U 21082T   22117.58335648 -.00716013  00000-0 -25075-1 0  9993,2 49147  70.0001 215.4341 0003480 288.6652 346.8065 15.31939171  3686,6848.1640000000025,93.999,472.412,467.646,0.0
49147.0,STARLINK-3071,PAYLOAD,2022-04-28 14:00:01,15.30409354,0.0003593,70.0001,212.7866,286.9988,99.0039,-0.026491,-0.00720788,0.0,0 STARLINK-3071,1 49147U 21082T   22118.58334491 -.00720788  00000-0 -26491-1 0  9996,2 49147  70.0001 212.7866 0003593 286.9988  99.0039 15.30409354 36752,6852.727,94.092,477.054,472.13,0.0
49147.0,STARLINK-3071,PAYLOAD,2022-04-29 14:00:01,15.28874945,0.0003474,70.0001,210.1454,287.4172,203.6671,-0.027678,-0.00718348,0.0,0 STARLINK-3071,1 49147U 21082T   22119.58334491 -.00718348  00000-0 -27678-1 0  9994,2 49147  70.0001 210.1454 0003474 287.4172 203.6671 15.28874945  3675,6857.311,94.187,481.559,476.794,0.0
49147.0,STARLINK-3071,PAYLOAD,2022-04-29 22:00:00,15.28364329,0.0003228,69.9999,209.2662,277.6168,247.2688,-0.028137,-0.00718805,0.0,0 STARLINK-3071,1 49147U 21082T   22119.91667824 -.00718805  00000-0 -28137-1 0  9999,2 49147  69.9999 209.2662 0003228 277.6168 247.2688 15.28364329 36961,6858.839,94.218,482.918,478.49,0.0
49147.0,STARLINK-3071,PAYLOAD,2022-04-30 14:00:01,15.27340029,0.0003362,70.0001,207.5101,287.4461,303.2048,-0.028865,-0.00714985,0.0,0 STARLINK-3071,1 49147U 21082T   22120.58334491 -.00714985  00000-0 -28865-1 0  9998,2 49147  70.0001 207.5101 0003362 287.4461 303.2048 15.27340029  3643,6861.905,94.282,486.077,481.463,0.0
49147.0,STARLINK-3071,PAYLOAD,2022-04-30 22:00:00,15.26831771,0.0003232,70.0,206.6331,278.2304,344.3828,-0.02953,-0.00728115,0.0,0 STARLINK-3071,1 49147U 21082T   22120.91667824 -.00728115  00000-0 -29530-1 0  9994,2 49147  70.0000 206.6331 0003232 278.2304 344.3828 15.26831771  3669,6863.427,94.313,487.511,483.074,0.0
49147.0,STARLINK-3071,PAYLOAD,2022-05-01 06:00:00,15.26319985,0.0003517,70.0003,205.7568,287.154,6.8092,-0.029861,-0.00725185,0.0,0 STARLINK-3071,1 49147U 21082T   22121.25001157 -.00725185  00000-0 -29861-1 0  9994,2 49147  70.0003 205.7568 0003517 287.1540   6.8092 15.26319985 37164,6864.962,94.345,489.241,484.412,0.0
49147.0,STARLINK-3071,PAYLOAD,2022-05-01 14:00:01,15.2580872,0.0003458,70.0001,204.8813,284.9206,39.7804,-0.03035,-0.00725706,0.0,0 STARLINK-3071,1 49147U 21082T   22121.58334491 -.00725706  00000-0 -30350-1 0  9994,2 49147  70.0001 204.8813 0003458 284.9206  39.7804 15.25808720  3644,6866.495,94.376,490.735,485.986,0.0
49147.0,STARLINK-3071,PAYLOAD,2022-05-01 22:00:01,15.2529869,0.0003381,70.0,204.0061,278.4731,76.4162,-0.030935,-0.00728217,0.0,0 STARLINK-3071,1 49147U 21082T   22121.91668981 -.00728217  00000-0 -30935-1 0  9994,2 49147  70.0000 204.0061 0003381 278.4731  76.4162 15.25298690  3662,6868.026,94.408,492.213,487.569,0.0
49147.0,STARLINK-3071,PAYLOAD,2022-05-02 06:00:00,15.24786303,0.0003594,70.0004,203.1321,286.5648,97.7729,-0.03124,-0.00724455,0.0,0 STARLINK-3071,1 49147U 21082T   22122.25001157 -.00724455  00000-0 -31240-1 0  9998,2 49147  70.0004 203.1321 0003594 286.5648  97.7729 15.24786303 37314,6869.564,94.439,493.898,488.96,0.0
49147.0,STARLINK-3071,PAYLOAD,2022-05-02 14:00:01,15.24276852,0.0003611,70.0001,202.2585,289.1063,124.1301,-0.031865,-0.00727539,0.0,0 STARLINK-3071,1 49147U 21082T   22122.58334491 -.00727539  00000-0 -31865-1 0  9993,2 49147  70.0001 202.2585 0003611 289.1063 124.1301 15.24276852  3679,6871.095,94.471,495.441,490.479,0.0
49147.0,STARLINK-3071,PAYLOAD,2022-05-02 22:00:01,15.237651800000002,0.0003385,70.0,201.3856,279.4809,162.1057,-0.032323,-0.00726813,0.0,0 STARLINK-3071,1 49147U 21082T   22122.91668981 -.00726813  00000-0 -32323-1 0  9998,2 49147  70.0000 201.3856 0003385 279.4809 162.1057 15.23765180  3673,6872.6330000000025,94.503,496.824,492.171,0.0
49147.0,STARLINK-3071,PAYLOAD,2022-05-03 04:00:00,15.23379805,0.0003601,70.0002,200.7314,287.4316,84.9047,-0.032498,-0.00722727,0.0,0 STARLINK-3071,1 49147U 21082T   22123.16667824 -.00722727  00000-0 -32498-1 0  9994,2 49147  70.0002 200.7314 0003601 287.4316  84.9047 15.23379805 37458,6873.792,94.527,498.132,493.182,0.0
49147.0,STARLINK-3071,PAYLOAD,2022-05-03 14:00:01,15.22742289,0.0003484,70.0001,199.642,289.47,206.7875,-0.033214,-0.00724638,0.0,0 STARLINK-3071,1 49147U 21082T   22123.58334491 -.00724638  00000-0 -33214-1 0  9991,2 49147  70.0001 199.6420 0003484 289.4700 206.7875 15.22742289  3667,6875.71,94.566,499.971,495.18,0.0
49147.0,STARLINK-3071,PAYLOAD,2022-05-03 22:00:00,15.22232274,0.0003256999999999,69.9999,198.771,280.9791,241.7262,-0.033806,-0.00726343,0.0,0 STARLINK-3071,1 49147U 21082T   22123.91667824 -.00726343  00000-0 -33806-1 0  9999,2 49147  69.9999 198.7710 0003257 280.9791 241.7262 15.22232274  3652,6877.246,94.598,501.351,496.871,0.0
49147.0,STARLINK-3071,PAYLOAD,2022-05-04 06:00:02,15.21720293,0.0003403,70.0003,197.9009,288.4005,260.2033,-0.034197,-0.00723916,0.0,0 STARLINK-3071,1 49147U 21082T   22124.25002315 -.00723916  00000-0 -34197-1 0  9992,2 49147  70.0003 197.9009 0003403 288.4005 260.2033 15.21720293 37625,6878.788000000001,94.63,502.994,498.31300000000016,0.0
49147.0,STARLINK-3071,PAYLOAD,2022-05-04 14:00:01,15.2120823,0.0003267,70.0,197.0314,284.7270000000001,289.0364,-0.034641,-0.0072242999999999,0.0,0 STARLINK-3071,1 49147U 21082T   22124.58334491 -.00722430  00000-0 -34641-1 0  9995,2 49147  70.0000 197.0314 0003267 284.7270 289.0364 15.21208230  3657,6880.331999999999,94.662,504.445,499.949,0.0
49147.0,STARLINK-3071,PAYLOAD,2022-05-04 22:00:01,15.20699507,0.0003191999999999,70.0,196.1625,277.8132,320.6224,-0.035384,-0.00726677,0.0,0 STARLINK-3071,1 49147U 21082T   22124.91668981 -.00726677  00000-0 -35384-1 0  9998,2 49147  70.0000 196.1625 0003192 277.8132 320.6224 15.20699507  3678,6881.866,94.693,505.92800000000005,501.535,0.0
49147.0,STARLINK-3071,PAYLOAD,2022-05-05 14:00:01,15.19675967,0.0003327,70.0002,194.427,283.8876,1.8659,-0.036274,-0.00723268,0.0,0 STARLINK-3071,1 49147U 21082T   22125.58334491 -.00723268  00000-0 -36274-1 0  9990,2 49147  70.0002 194.4270 0003327 283.8876   1.8659 15.19675967 37825,6884.956,94.757,509.112,504.531,0.0
49147.0,STARLINK-3071,PAYLOAD,2022-05-05 22:00:00,15.19166118,0.0003282,70.0,193.5603,276.2109,32.3137,-0.036975,-0.00726177,0.0,0 STARLINK-3071,1 49147U 21082T   22125.91667824 -.00726177  00000-0 -36975-1 0  9996,2 49147  70.0000 193.5603 0003282 276.2109  32.3137 15.19166118  3655,6886.496,94.789,510.622,506.101,0.0
49147.0,STARLINK-3071,PAYLOAD,2022-05-06 14:00:01,15.18143249,0.0003497,70.0001,191.8289,285.389,66.8398,-0.037947,-0.00723719,0.0,0 STARLINK-3071,1 49147U 21082T   22126.58334491 -.00723719  00000-0 -37947-1 0  9990,2 49147  70.0001 191.8289 0003497 285.3890  66.8398 15.18143249  3664,6889.589,94.853,513.864,509.045,0.0
49147.0,STARLINK-3071,PAYLOAD,2022-05-06 22:00:00,15.17632069,0.0003419,70.0,190.9641,280.0525,93.1095,-0.038553,-0.00724453,0.0,0 STARLINK-3071,1 49147U 21082T   22126.91667824 -.00724453  00000-0 -38553-1 0  9996,2 49147  70.0000 190.9641 0003419 280.0525  93.1095 15.17632069 38023,6891.136,94.885,515.357,510.645,0.0
49147.0,STARLINK-3071,PAYLOAD,2022-05-07 14:00:01,15.16608801,0.0003415,70.0001,189.2368,281.4468,131.7429,-0.039524,-0.0072141,0.0,0 STARLINK-3071,1 49147U 21082T   22127.58334491 -.00721410  00000-0 -39524-1 0  9990,2 49147  70.0001 189.2368 0003415 281.4468 131.7429 15.16608801  3655,6894.236,94.949,518.455,513.746,0.0
49147.0,STARLINK-3071,PAYLOAD,2022-05-07 22:00:00,15.16098433,0.0003404,70.0,188.3742,281.5896,150.6944,-0.040197,-0.00722954,0.0,0 STARLINK-3071,1 49147U 21082T   22127.91667824 -.00722954  00000-0 -40197-1 0  9998,2 49147  70.0000 188.3742 0003404 281.5896 150.6944 15.16098433  3650,6895.783,94.981,519.995,515.3009999999998,0.0
